ONEWEB-0137             
1 47283U 20100AB  26097.17240744 -.00000013  00000+0 -71964-4 0  9996
2 47283  87.9018   4.7587 0001668  78.9470 281.1846 13.12443663255258
ONEWEB-0138             
1 47284U 20100AC  26097.15037000 -.00000357  00000+0 -10291-2 0  9999
2 47284  87.9017   4.7713 0001968  74.3781 285.7565 13.12441000255337
ONEWEB-0139             
1 47285U 20100AD  26097.19118573  .00000485  00000+0  13121-2 0  9994
2 47285  87.9015   4.7505 0001808  77.9954 282.1377 13.12442019255411
ONEWEB-0140             
1 47286U 20100AE  26097.14529219 -.00000258  00000+0 -75258-3 0  9993
2 47286  87.9016   4.7489 0001915  82.8055 277.3291 13.12440889255379
ONEWEB-0141             
1 47287U 20100AF  26097.19090712  .00000456  00000+0  12318-2 0  9995
2 47287  87.9015   4.7456 0001463  76.1034 284.0257 13.12442454255360
ONEWEB-0142             
1 47288U 20100AG  26097.17932048  .00000302  00000+0  80294-3 0  9990
2 47288  87.9013   4.7720 0001597  65.9150 294.2146 13.12443475255359
ONEWEB-0143             
1 47289U 20100AH  26097.18935200  .00000423  00000+0  11414-2 0  9996
2 47289  87.9014   4.7666 0001753  78.7066 281.4260 13.12442002255330
ONEWEB-0144             
1 47290U 20100AJ  26097.16054478 -.00000231  00000+0 -67851-3 0  9991
2 47290  87.9021   4.7431 0001918  68.7821 291.3512 13.12444783255250
ONEWEB-0145             
1 47291U 20100AK  26097.20798357 -.00000087  00000+0 -27716-3 0  9993
2 47291  87.9006   4.7695 0001771  75.0792 285.0532 13.12441909255452
ONEWEB-0146             
1 47292U 20100AL  26096.97588236 -.00000021  00000+0 -94487-4 0  9998
2 47292  87.9016   4.8022 0001851  89.2366 270.8975 13.12441307255334
ONEWEB-0147             
1 47293U 20100AM  26097.17069836 -.00000390  00000+0 -11189-2 0  9997
2 47293  87.9018   4.7437 0001954  78.5778 281.5570 13.12444613255252
ONEWEB-0115             
1 48042U 21025A   26097.17819199  .00000329  00000+0  86635-3 0  9991
2 48042  87.9003 334.3593 0001719  83.6557 276.4768 13.13469402244271
ONEWEB-0152             
1 48043U 21025B   26097.19173338  .00000318  00000+0  83516-3 0  9995
2 48043  87.8997 334.3565 0001775  85.2421 274.8911 13.13468620244231
ONEWEB-0153             
1 48044U 21025C   26097.16972912  .00000169  00000+0  42851-3 0  9999
2 48044  87.8995 334.3653 0001711  78.9872 281.1449 13.13469560244227
ONEWEB-0154             
1 48045U 21025D   26097.16634577  .00000034  00000+0  58695-4 0  9997
2 48045  87.8996 334.3636 0001805  81.6859 278.4475 13.13470574244180
ONEWEB-0116             
1 48046U 21025E   26097.12909247  .00000034  00000+0  58120-4 0  9996
2 48046  87.9004 334.3616 0001776  85.6939 274.4393 13.13468324244321
