[{"OBJECT_NAME":"ONEWEB-0137","OBJECT_ID":"2020-100AB","EPOCH":"2026-04-07T04:08:16.002816","MEAN_MOTION":13.12443663,"ECCENTRICITY":0.0001668,"INCLINATION":87.9018,"RA_OF_ASC_NODE":4.7587,"ARG_OF_PERICENTER":78.947,"MEAN_ANOMALY":281.1846,"EPHEMERIS_TYPE":0,"CLASSIFICATION_TYPE":"U","NORAD_CAT_ID":47283,"ELEMENT_SET_NO":999,"REV_AT_EPOCH":25525,"BSTAR":-7.1964e-05,"MEAN_MOTION_DOT":-1.3e-07,"MEAN_MOTION_DDOT":0.0},{"OBJECT_NAME":"ONEWEB-0138","OBJECT_ID":"2020-100AC","EPOCH":"2026-04-07T03:36:31.968000","MEAN_MOTION":13.12441,"ECCENTRICITY":0.0001968,"INCLINATION":87.9017,"RA_OF_ASC_NODE":4.7713,"ARG_OF_PERICENTER":74.3781,"MEAN_ANOMALY":285.7565,"EPHEMERIS_TYPE":0,"CLASSIFICATION_TYPE":"U","NORAD_CAT_ID":47284,"ELEMENT_SET_NO":999,"REV_AT_EPOCH":25533,"BSTAR":-0.0010291,"MEAN_MOTION_DOT":-3.57e-06,"MEAN_MOTION_DDOT":0.0},{"OBJECT_NAME":"ONEWEB-0139","OBJECT_ID":"2020-100AD","EPOCH":"2026-04-07T04:35:18.447072","MEAN_MOTION":13.12442019,"ECCENTRICITY":0.0001808,"INCLINATION":87.9015,"RA_OF_ASC_NODE":4.7505,"ARG_OF_PERICENTER":77.9954,"MEAN_ANOMALY":282.1377,"EPHEMERIS_TYPE":0,"CLASSIFICATION_TYPE":"U","NORAD_CAT_ID":47285,"ELEMENT_SET_NO":999,"REV_AT_EPOCH":25541,"BSTAR":0.0013120999999999999,"MEAN_MOTION_DOT":4.85e-06,"MEAN_MOTION_DDOT":0.0},{"OBJECT_NAME":"ONEWEB-0140","OBJECT_ID":"2020-100AE","EPOCH":"2026-04-07T03:29:13.245216","MEAN_MOTION":13.12440889,"ECCENTRICITY":0.0001915,"INCLINATION":87.9016,"RA_OF_ASC_NODE":4.7489,"ARG_OF_PERICENTER":82.8055,"MEAN_ANOMALY":277.3291,"EPHEMERIS_TYPE":0,"CLASSIFICATION_TYPE":"U","NORAD_CAT_ID":47286,"ELEMENT_SET_NO":999,"REV_AT_EPOCH":25537,"BSTAR":-0.0007525800000000001,"MEAN_MOTION_DOT":-2.58e-06,"MEAN_MOTION_DDOT":0.0},{"OBJECT_NAME":"ONEWEB-0141","OBJECT_ID":"2020-100AF","EPOCH":"2026-04-07T04:34:54.375168","MEAN_MOTION":13.12442454,"ECCENTRICITY":0.0001463,"INCLINATION":87.9015,"RA_OF_ASC_NODE":4.7456,"ARG_OF_PERICENTER":76.1034,"MEAN_ANOMALY":284.0257,"EPHEMERIS_TYPE":0,"CLASSIFICATION_TYPE":"U","NORAD_CAT_ID":47287,"ELEMENT_SET_NO":999,"REV_AT_EPOCH":25536,"BSTAR":0.0012318,"MEAN_MOTION_DOT":4.56e-06,"MEAN_MOTION_DDOT":0.0},{"OBJECT_NAME":"ONEWEB-0142","OBJECT_ID":"2020-100AG","EPOCH":"2026-04-07T04:18:13.289472","MEAN_MOTION":13.12443475,"ECCENTRICITY":0.0001597,"INCLINATION":87.9013,"RA_OF_ASC_NODE":4.772,"ARG_OF_PERICENTER":65.915,"MEAN_ANOMALY":294.2146,"EPHEMERIS_TYPE":0,"CLASSIFICATION_TYPE":"U","NORAD_CAT_ID":47288,"ELEMENT_SET_NO":999,"REV_AT_EPOCH":25535,"BSTAR":0.00080294,"MEAN_MOTION_DOT":3.02e-06,"MEAN_MOTION_DDOT":0.0},{"OBJECT_NAME":"ONEWEB-0143","OBJECT_ID":"2020-100AH","EPOCH":"2026-04-07T04:32:40.012800","MEAN_MOTION":13.12442002,"ECCENTRICITY":0.0001753,"INCLINATION":87.9014,"RA_OF_ASC_NODE":4.7666,"ARG_OF_PERICENTER":78.7066,"MEAN_ANOMALY":281.426,"EPHEMERIS_TYPE":0,"CLASSIFICATION_TYPE":"U","NORAD_CAT_ID":47289,"ELEMENT_SET_NO":999,"REV_AT_EPOCH":25533,"BSTAR":0.0011414,"MEAN_MOTION_DOT":4.23e-06,"MEAN_MOTION_DDOT":0.0},{"OBJECT_NAME":"ONEWEB-0144","OBJECT_ID":"2020-100AJ","EPOCH":"2026-04-07T03:51:11.068992","MEAN_MOTION":13.12444783,"ECCENTRICITY":0.0001918,"INCLINATION":87.9021,"RA_OF_ASC_NODE":4.7431,"ARG_OF_PERICENTER":68.7821,"MEAN_ANOMALY":291.3512,"EPHEMERIS_TYPE":0,"CLASSIFICATION_TYPE":"U","NORAD_CAT_ID":47290,"ELEMENT_SET_NO":999,"REV_AT_EPOCH":25525,"BSTAR":-0.00067851,"MEAN_MOTION_DOT":-2.31e-06,"MEAN_MOTION_DDOT":0.0},{"OBJECT_NAME":"ONEWEB-0145","OBJECT_ID":"2020-100AK","EPOCH":"2026-04-07T04:59:29.780448","MEAN_MOTION":13.12441909,"ECCENTRICITY":0.0001771,"INCLINATION":87.9006,"RA_OF_ASC_NODE":4.7695,"ARG_OF_PERICENTER":75.0792,"MEAN_ANOMALY":285.0532,"EPHEMERIS_TYPE":0,"CLASSIFICATION_TYPE":"U","NORAD_CAT_ID":47291,"ELEMENT_SET_NO":999,"REV_AT_EPOCH":25545,"BSTAR":-0.00027716000000000004,"MEAN_MOTION_DOT":-8.7e-07,"MEAN_MOTION_DDOT":0.0},{"OBJECT_NAME":"ONEWEB-0146","OBJECT_ID":"2020-100AL","EPOCH":"2026-04-06T23:25:16.235904","MEAN_MOTION":13.12441307,"ECCENTRICITY":0.0001851,"INCLINATION":87.9016,"RA_OF_ASC_NODE":4.8022,"ARG_OF_PERICENTER":89.2366,"MEAN_ANOMALY":270.8975,"EPHEMERIS_TYPE":0,"CLASSIFICATION_TYPE":"U","NORAD_CAT_ID":47292,"ELEMENT_SET_NO":999,"REV_AT_EPOCH":25533,"BSTAR":-9.4487e-05,"MEAN_MOTION_DOT":-2.1e-07,"MEAN_MOTION_DDOT":0.0},{"OBJECT_NAME":"ONEWEB-0147","OBJECT_ID":"2020-100AM","EPOCH":"2026-04-07T04:05:48.338304","MEAN_MOTION":13.12444613,"ECCENTRICITY":0.0001954,"INCLINATION":87.9018,"RA_OF_ASC_NODE":4.7437,"ARG_OF_PERICENTER":78.5778,"MEAN_ANOMALY":281.557,"EPHEMERIS_TYPE":0,"CLASSIFICATION_TYPE":"U","NORAD_CAT_ID":47293,"ELEMENT_SET_NO":999,"REV_AT_EPOCH":25525,"BSTAR":-0.0011189000000000001,"MEAN_MOTION_DOT":-3.9e-06,"MEAN_MOTION_DDOT":0.0},{"OBJECT_NAME":"ONEWEB-0115","OBJECT_ID":"2021-025A","EPOCH":"2026-04-07T04:16:35.787936","MEAN_MOTION":13.13469402,"ECCENTRICITY":0.0001719,"INCLINATION":87.9003,"RA_OF_ASC_NODE":334.3593,"ARG_OF_PERICENTER":83.6557,"MEAN_ANOMALY":276.4768,"EPHEMERIS_TYPE":0,"CLASSIFICATION_TYPE":"U","NORAD_CAT_ID":48042,"ELEMENT_SET_NO":999,"REV_AT_EPOCH":24427,"BSTAR":0.00086635,"MEAN_MOTION_DOT":3.29e-06,"MEAN_MOTION_DDOT":0.0},{"OBJECT_NAME":"ONEWEB-0152","OBJECT_ID":"2021-025B","EPOCH":"2026-04-07T04:36:05.764032","MEAN_MOTION":13.1346862,"ECCENTRICITY":0.0001775,"INCLINATION":87.8997,"RA_OF_ASC_NODE":334.3565,"ARG_OF_PERICENTER":85.2421,"MEAN_ANOMALY":274.8911,"EPHEMERIS_TYPE":0,"CLASSIFICATION_TYPE":"U","NORAD_CAT_ID":48043,"ELEMENT_SET_NO":999,"REV_AT_EPOCH":24423,"BSTAR":0.00083516,"MEAN_MOTION_DOT":3.18e-06,"MEAN_MOTION_DDOT":0.0},{"OBJECT_NAME":"ONEWEB-0153","OBJECT_ID":"2021-025C","EPOCH":"2026-04-07T04:04:24.595968","MEAN_MOTION":13.1346956,"ECCENTRICITY":0.0001711,"INCLINATION":87.8995,"RA_OF_ASC_NODE":334.3653,"ARG_OF_PERICENTER":78.9872,"MEAN_ANOMALY":281.1449,"EPHEMERIS_TYPE":0,"CLASSIFICATION_TYPE":"U","NORAD_CAT_ID":48044,"ELEMENT_SET_NO":999,"REV_AT_EPOCH":24422,"BSTAR":0.00042851,"MEAN_MOTION_DOT":1.69e-06,"MEAN_MOTION_DDOT":0.0},{"OBJECT_NAME":"ONEWEB-0154","OBJECT_ID":"2021-025D","EPOCH":"2026-04-07T03:59:32.274528","MEAN_MOTION":13.13470574,"ECCENTRICITY":0.0001805,"INCLINATION":87.8996,"RA_OF_ASC_NODE":334.3636,"ARG_OF_PERICENTER":81.6859,"MEAN_ANOMALY":278.4475,"EPHEMERIS_TYPE":0,"CLASSIFICATION_TYPE":"U","NORAD_CAT_ID":48045,"ELEMENT_SET_NO":999,"REV_AT_EPOCH":24418,"BSTAR":5.8695e-05,"MEAN_MOTION_DOT":3.4e-07,"MEAN_MOTION_DDOT":0.0},{"OBJECT_NAME":"ONEWEB-0116","OBJECT_ID":"2021-025E","EPOCH":"2026-04-07T03:05:53.589408","MEAN_MOTION":13.13468324,"ECCENTRICITY":0.0001776,"INCLINATION":87.9004,"RA_OF_ASC_NODE":334.3616,"ARG_OF_PERICENTER":85.6939,"MEAN_ANOMALY":274.4393,"EPHEMERIS_TYPE":0,"CLASSIFICATION_TYPE":"U","NORAD_CAT_ID":48046,"ELEMENT_SET_NO":999,"REV_AT_EPOCH":24432,"BSTAR":5.8120000000000006e-05,"MEAN_MOTION_DOT":3.4e-07,"MEAN_MOTION_DDOT":0.0}]